NORAD_CAT_ID,OBJECT_NAME,OBJECT_TYPE,EPOCH,MEAN_MOTION,ECCENTRICITY,INCLINATION,RA_OF_ASC_NODE,ARG_OF_PERICENTER,MEAN_ANOMALY,BSTAR,MEAN_MOTION_DOT,MEAN_MOTION_DDOT,TLE_LINE0,TLE_LINE1,TLE_LINE2,SEMIMAJOR_AXIS,PERIOD,APOGEE,PERIGEE,DECAYED
52002.0,STARLINK-3668,PAYLOAD,2022-08-14 22:00:00,15.08842341,0.0001376999999999,53.2175,107.4848,64.5229,129.3004,-0.00069638,-0.00011354,0.0,0 STARLINK-3668,1 52002U 22025AY  22226.91667824 -.00011354  00000-0 -69638-3 0  9998,2 52002  53.2175 107.4848 0001377  64.5229 129.3004 15.08842341  1301,6917.873000000001,95.437,540.691,538.786,0.0
52002.0,STARLINK-3668,PAYLOAD,2022-08-15 14:00:01,15.08833887,0.0001363,53.2176,104.4903,72.4242,144.5991,0.00014733,2.057e-05,0.0,0 STARLINK-3668,1 52002U 22025AY  22227.58334491  .00002057  00000-0  14733-3 0  9997,2 52002  53.2176 104.4903 0001363  72.4242 144.5991 15.08833887  1308,6917.899,95.438,540.707,538.821,0.0
52002.0,STARLINK-3668,PAYLOAD,2022-08-15 22:00:00,15.08833051,0.000152,53.2177,102.9955,66.6136,161.9995,-0.0005791,-9.491e-05,0.0,0 STARLINK-3668,1 52002U 22025AY  22227.91667824 -.00009491  00000-0 -57910-3 0  9998,2 52002  53.2177 102.9955 0001520  66.6136 161.9995 15.08833051  1301,6917.901999999999,95.438,540.818,538.715,0.0
52002.0,STARLINK-3668,PAYLOAD,2022-08-16 14:00:01,15.08828879,0.0001409999999999,53.2178,100.001,74.781,177.0153,0.0026095,0.00041474,0.0,0 STARLINK-3668,1 52002U 22025AY  22228.58334491  .00041474  00000-0  26095-2 0  9997,2 52002  53.2178 100.0010 0001410  74.7810 177.0153 15.08828879  1306,6917.9140000000025,95.438,540.755,538.804,0.0
52002.0,STARLINK-3668,PAYLOAD,2022-08-16 22:00:00,15.0885274,0.0001523,53.2177,98.5063,67.7423,195.654,-0.00035779,-5.98e-05,0.0,0 STARLINK-3668,1 52002U 22025AY  22228.91667824 -.00005980  00000-0 -35779-3 0  9997,2 52002  53.2177  98.5063 0001523  67.7423 195.6540 15.08852740 26061,6917.840999999999,95.437,540.76,538.653,0.0
52002.0,STARLINK-3668,PAYLOAD,2022-08-17 16:00:00,15.0884016,0.0001527,53.2178,95.1386,78.5007,301.0,0.0004967,7.626e-05,0.0,0 STARLINK-3668,1 52002U 22025AY  22229.66667824  .00007626  00000-0  49670-3 0  9992,2 52002  53.2178  95.1386 0001527  78.5007 301.0000 15.08840160  1302,6917.88,95.438,540.8009999999998,538.689,0.0
52002.0,STARLINK-3668,PAYLOAD,2022-08-18 08:00:01,15.08863586,0.0001514,53.2175,92.1458,74.2558,328.4485,-0.00085398,-0.00013862,0.0,0 STARLINK-3668,1 52002U 22025AY  22230.33334491 -.00013862  00000-0 -85398-3 0  9997,2 52002  53.2175  92.1458 0001514  74.2558 328.4485 15.08863586 26276,6917.808000000001,95.436,540.721,538.626,0.0
52002.0,STARLINK-3668,PAYLOAD,2022-08-18 14:00:01,15.08860586,0.0001459,53.2176,91.0229,79.6012,241.8163,-0.00025579,-4.359e-05,0.0,0 STARLINK-3668,1 52002U 22025AY  22230.58334491 -.00004359  00000-0 -25579-3 0  9990,2 52002  53.2176  91.0229 0001459  79.6012 241.8163 15.08860586  1308,6917.816999999999,95.436,540.692,538.673,0.0
52002.0,STARLINK-3668,PAYLOAD,2022-08-18 22:00:00,15.08836833,0.0001517,53.2175,89.5284,70.5271,262.4707,0.00025537,3.778e-05,0.0,0 STARLINK-3668,1 52002U 22025AY  22230.91667824  .00003778  00000-0  25537-3 0  9992,2 52002  53.2175  89.5284 0001517  70.5271 262.4707 15.08836833  1303,6917.89,95.438,540.805,538.706,0.0
52002.0,STARLINK-3668,PAYLOAD,2022-08-19 14:00:01,15.08817107,0.0001559,53.2175,86.5341,80.1344,276.0517,0.0022843,0.00036231,0.0,0 STARLINK-3668,1 52002U 22025AY  22231.58334491  .00036231  00000-0  22843-2 0  9993,2 52002  53.2175  86.5341 0001559  80.1344 276.0517 15.08817107 26465,6917.95,95.439,540.894,538.737,0.0
52002.0,STARLINK-3668,PAYLOAD,2022-08-19 22:00:00,15.08825299,0.0001665,53.2175,85.0397,71.807,295.9563,0.00037523,5.686e-05,0.0,0 STARLINK-3668,1 52002U 22025AY  22231.91667824  .00005686  00000-0  37523-3 0  9991,2 52002  53.2175  85.0397 0001665  71.8070 295.9563 15.08825299  1309,6917.925,95.438,540.942,538.638,0.0
52002.0,STARLINK-3668,PAYLOAD,2022-08-20 04:00:00,15.0884383,0.0001575,53.2172,83.9171,70.2183,216.223,-0.00099156,-0.00016036,0.0,0 STARLINK-3668,1 52002U 22025AY  22232.16667824 -.00016036  00000-0 -99156-3 0  9992,2 52002  53.2172  83.9171 0001575  70.2183 216.2230 15.08843830 26553,6917.869000000002,95.437,540.823,538.644,0.0
52002.0,STARLINK-3668,PAYLOAD,2022-08-20 14:00:01,15.08835299,0.0001607,53.2173,82.0475,76.4907,314.4456,-0.00040462,-6.721e-05,0.0,0 STARLINK-3668,1 52002U 22025AY  22232.58334491 -.00006721  00000-0 -40462-3 0  9995,2 52002  53.2173  82.0475 0001607  76.4907 314.4456 15.08835299  1306,6917.895,95.438,540.871,538.648,0.0
52002.0,STARLINK-3668,PAYLOAD,2022-08-20 22:00:00,15.08845952,0.000168,53.2177,80.5508,70.8877,331.6481,-0.00017575,-3.085e-05,0.0,0 STARLINK-3668,1 52002U 22025AY  22232.91667824 -.00003085  00000-0 -17575-3 0  9990,2 52002  53.2177  80.5508 0001680  70.8877 331.6481 15.08845952 26667,6917.861999999999,95.437,540.889,538.565,0.0
52002.0,STARLINK-3668,PAYLOAD,2022-08-21 14:00:01,15.08828367,0.0001545,53.218,77.5564,77.6462,348.0759,0.0011664,0.00018318,0.0,0 STARLINK-3668,1 52002U 22025AY  22233.58334491  .00018318  00000-0  11664-2 0  9990,2 52002  53.2180  77.5564 0001545  77.6462 348.0759 15.08828367  1309,6917.916,95.438,540.85,538.712,0.0
52002.0,STARLINK-3668,PAYLOAD,2022-08-21 22:00:00,15.08825768,0.0001641999999999,53.2181,76.0619,69.3057,8.0073,0.00099031,0.00015502,0.0,0 STARLINK-3668,1 52002U 22025AY  22233.91667824  .00015502  00000-0  99031-3 0  9993,2 52002  53.2181  76.0619 0001642  69.3057   8.0073 15.08825768  1305,6917.924,95.438,540.925,538.653,0.0
52002.0,STARLINK-3668,PAYLOAD,2022-08-22 04:00:00,15.08854152,0.0001571999999999,53.218,74.939,68.6126,287.3827,-0.0016099,-0.00025828,0.0,0 STARLINK-3668,1 52002U 22025AY  22234.16667824 -.00025828  00000-0 -16099-2 0  9997,2 52002  53.2180  74.9390 0001572  68.6126 287.3827 15.08854152 26853,6917.837,95.437,540.79,538.615,0.0
52002.0,STARLINK-3668,PAYLOAD,2022-08-22 12:00:00,15.08825984,0.0001548,53.2183,73.4413,77.4087,290.1909,0.0026475,0.00042083,0.0,0 STARLINK-3668,1 52002U 22025AY  22234.50001157  .00042083  00000-0  26475-2 0  9995,2 52002  53.2183  73.4413 0001548  77.4087 290.1909 15.08825984  1300,6917.9230000000025,95.438,540.859,538.717,0.0
52002.0,STARLINK-3668,PAYLOAD,2022-08-22 22:00:00,15.08844102,0.0001601,53.2185,71.5729,68.3993,43.7026,-0.0014865,-0.0002387,0.0,0 STARLINK-3668,1 52002U 22025AY  22234.91667824 -.00023870  00000-0 -14865-2 0  9994,2 52002  53.2185  71.5729 0001601  68.3993  43.7026 15.08844102 26971,6917.868,95.437,540.84,538.625,0.0
52002.0,STARLINK-3668,PAYLOAD,2022-08-23 14:00:01,15.08834879,0.0001472,53.2187,68.5786,77.4264,57.84,8.1511e-05,1.009e-05,0.0,0 STARLINK-3668,1 52002U 22025AY  22235.58334491  .00001009  00000-0  81511-4 0  9991,2 52002  53.2187  68.5786 0001472  77.4264  57.8400 15.08834879  1302,6917.896,95.438,540.779,538.743,0.0
52002.0,STARLINK-3668,PAYLOAD,2022-08-23 22:00:01,15.08816787,0.0001531999999999,53.2186,67.0839,68.036,78.887,0.0017292,0.00027322,0.0,0 STARLINK-3668,1 52002U 22025AY  22235.91668981  .00027322  00000-0  17292-2 0  9991,2 52002  53.2186  67.0839 0001532  68.0360  78.8870 15.08816787 27124,6917.951,95.439,540.876,538.757,0.0
52002.0,STARLINK-3668,PAYLOAD,2022-08-24 14:00:01,15.08846568,0.0001448,53.2187,64.0898,79.0391,90.9846,-0.00042729,-7.083e-05,0.0,0 STARLINK-3668,1 52002U 22025AY  22236.58334491 -.00007083  00000-0 -42729-3 0  9999,2 52002  53.2187  64.0898 0001448  79.0391  90.9846 15.08846568  1309,6917.86,95.437,540.727,538.724,0.0
52002.0,STARLINK-3668,PAYLOAD,2022-08-24 22:00:00,15.08821141,0.0001498,53.2184,62.595,69.2581,112.3706,0.0020574,0.0003259,0.0,0 STARLINK-3668,1 52002U 22025AY  22236.91667824  .00032590  00000-0  20574-2 0  9997,2 52002  53.2184  62.5950 0001498  69.2581 112.3706 15.08821141 27273,6917.938,95.439,540.839,538.7669999999998,0.0
52002.0,STARLINK-3668,PAYLOAD,2022-08-25 14:00:01,15.08836096,0.0001525,53.2176,59.6038,69.9948,134.8171,8.8425e-05,1.119e-05,0.0,0 STARLINK-3668,1 52002U 22025AY  22237.58334491  .00001119  00000-0  88425-4 0  9996,2 52002  53.2176  59.6038 0001525  69.9948 134.8171 15.08836096  1309,6917.892,95.438,540.812,538.702,0.0
52002.0,STARLINK-3668,PAYLOAD,2022-08-25 22:00:00,15.08827123,0.0001478,53.2179,58.1059,70.7299,145.697,0.0024686,0.00039205,0.0,0 STARLINK-3668,1 52002U 22025AY  22237.91667824  .00039205  00000-0  24686-2 0  9996,2 52002  53.2179  58.1059 0001478  70.7299 145.6970 15.08827123  1303,6917.92,95.438,540.807,538.762,0.0
52002.0,STARLINK-3668,PAYLOAD,2022-08-26 12:00:00,15.08862582,0.0001395,53.2178,55.4852,83.1236,63.5996,-0.0015839,-0.00025423,0.0,0 STARLINK-3668,1 52002U 22025AY  22238.50001157 -.00025423  00000-0 -15839-2 0  9992,2 52002  53.2178  55.4852 0001395  83.1236  63.5996 15.08862582 27515,6917.811,95.436,540.641,538.711,0.0
52002.0,STARLINK-3668,PAYLOAD,2022-08-26 14:00:01,15.08877612,0.0001363,53.2177,55.1117,81.7532,157.9322,-0.0043788,-0.00069376,0.0,0 STARLINK-3668,1 52002U 22025AY  22238.58335648 -.00069376  00000-0 -43788-2 0  9994,2 52002  53.2177  55.1117 0001363  81.7532 157.9322 15.08877612  1303,6917.765,95.435,540.573,538.688,0.0
52002.0,STARLINK-3668,PAYLOAD,2022-08-26 22:00:00,15.08801347,0.0001341999999999,53.2176,53.6167,69.6413,181.6,0.0027588,0.00043845,0.0,0 STARLINK-3668,1 52002U 22025AY  22238.91667824  .00043845  00000-0  27588-2 0  9996,2 52002  53.2176  53.6167 0001342  69.6413 181.6000 15.08801347  1309,6917.999,95.44,540.7919999999998,538.935,0.0
52002.0,STARLINK-3668,PAYLOAD,2022-08-27 14:00:01,15.08844502,0.0001307,53.2175,50.6225,79.618,194.765,-0.0011542,-0.00018612,0.0,0 STARLINK-3668,1 52002U 22025AY  22239.58334491 -.00018612  00000-0 -11542-2 0  9990,2 52002  53.2175  50.6225 0001307  79.6180 194.7650 15.08844502  1309,6917.8669999999975,95.437,540.636,538.827,0.0
